{
  "type": "FeatureCollection",
  "bbox": [
    120.299159349827,
    16.0067189997719,
    120.378484999193,
    16.1139603727262
  ],
  "features": [
    {
      "type": "Feature",
      "properties": {
        "name": "Dagupan City",
        "province": "Pangasinan",
        "boundary_id": "dpwh-2022-03-dagupan",
        "source_date": "2022-03",
        "attribution": "Original source NAMRIA; digitally rectified by GIA Staff, Statistics Division, Planning Service, DPWH (March 2022). References: OpenStreetMap and Philippine Statistics Authority.",
        "source_url": "https://services1.arcgis.com/IwZZTMxZCmAmFYvF/ArcGIS/rest/services/City_Municipal_Boundaries/FeatureServer/0"
      },
      "geometry": {
        "type": "Polygon",
        "coordinates": [
          [
            [
              120.364289999751,
              16.0531549994779
            ],
            [
              120.36474099923,
              16.0519449996521
            ],
            [
              120.365329999955,
              16.0489639997493
            ],
            [
              120.366451999971,
              16.0479289998316
            ],
            [
              120.367306999239,
              16.046331999234
            ],
            [
              120.367310999073,
              16.0443859998529
            ],
            [
              120.368746999637,
              16.0432229992076
            ],
            [
              120.371930120838,
              16.0419447112875
            ],
            [
              120.371932999408,
              16.0406379997166
            ],
            [
              120.371934999348,
              16.0397729994238
            ],
            [
              120.372432999137,
              16.0373539994608
            ],
            [
              120.375616999544,
              16.0359359998432
            ],
            [
              120.377051999336,
              16.0350759998468
            ],
            [
              120.376408719495,
              16.0321382056533
            ],
            [
              120.371851940443,
              16.0306418560795
            ],
            [
              120.367430187896,
              16.0292515154498
            ],
            [
              120.359287853092,
              16.0266329105969
            ],
            [
              120.352982302536,
              16.0237842883007
            ],
            [
              120.351539504424,
              16.0237064743319
            ],
            [
              120.346834594564,
              16.0213385208649
            ],
            [
              120.342344944777,
              16.0195500764296
            ],
            [
              120.339353614062,
              16.0186251537817
            ],
            [
              120.335763565004,
              16.0171693906001
            ],
            [
              120.332352608624,
              16.0172120772391
            ],
            [
              120.331686225247,
              16.017621973375
            ],
            [
              120.331049911058,
              16.018648409704
            ],
            [
              120.324052890812,
              16.0140475857487
            ],
            [
              120.316611999904,
              16.0067189997719
            ],
            [
              120.315404999139,
              16.0108669996077
            ],
            [
              120.31464799957,
              16.0148419995736
            ],
            [
              120.313620999504,
              16.0185139992192
            ],
            [
              120.313163813757,
              16.0197206989204
            ],
            [
              120.311045307186,
              16.0253123170007
            ],
            [
              120.309098398639,
              16.0304532259382
            ],
            [
              120.302826999005,
              16.0481829998774
            ],
            [
              120.299159349827,
              16.0566933149664
            ],
            [
              120.300902955105,
              16.0573356928398
            ],
            [
              120.302544361779,
              16.0581540024877
            ],
            [
              120.305066540098,
              16.0590020588724
            ],
            [
              120.308408042583,
              16.0606716703088
            ],
            [
              120.310930309593,
              16.061510693981
            ],
            [
              120.314139197299,
              16.0631230045339
            ],
            [
              120.316580131409,
              16.0642635729112
            ],
            [
              120.318097949866,
              16.0651052830242
            ],
            [
              120.319893833231,
              16.0659837328494
            ],
            [
              120.321717803577,
              16.0667875354397
            ],
            [
              120.324653701944,
              16.0687455327311
            ],
            [
              120.325394501973,
              16.0690467512213
            ],
            [
              120.326008116216,
              16.0694850526079
            ],
            [
              120.326341386845,
              16.0696474989348
            ],
            [
              120.327100738582,
              16.0699487698518
            ],
            [
              120.329463860685,
              16.071298170084
            ],
            [
              120.331566663534,
              16.0737854761985
            ],
            [
              120.331805921705,
              16.0743361678743
            ],
            [
              120.331850798216,
              16.0747816438935
            ],
            [
              120.332172333292,
              16.0753666385172
            ],
            [
              120.333325896399,
              16.0764796894306
            ],
            [
              120.334706556661,
              16.0777177752137
            ],
            [
              120.336919433875,
              16.0793027476829
            ],
            [
              120.338968642425,
              16.0802894256092
            ],
            [
              120.341400769805,
              16.0813968177711
            ],
            [
              120.345037018583,
              16.083699819644
            ],
            [
              120.347391770802,
              16.0850496025742
            ],
            [
              120.349764503557,
              16.0869637063594
            ],
            [
              120.351356556516,
              16.087889101955
            ],
            [
              120.352837186814,
              16.0888619711211
            ],
            [
              120.356992648474,
              16.0913631334691
            ],
            [
              120.358729151,
              16.0927647343009
            ],
            [
              120.360189557602,
              16.0938976959092
            ],
            [
              120.360860260807,
              16.0945118158852
            ],
            [
              120.362063556553,
              16.0956248672083
            ],
            [
              120.36283288854,
              16.0963349190879
            ],
            [
              120.363562414428,
              16.0971213639897
            ],
            [
              120.364390684831,
              16.097965485823
            ],
            [
              120.365971590127,
              16.0999028296552
            ],
            [
              120.367700750092,
              16.1023174916497
            ],
            [
              120.368427957197,
              16.1038499286246
            ],
            [
              120.370868361269,
              16.1079697726514
            ],
            [
              120.371873033692,
              16.1093691150305
            ],
            [
              120.373386747218,
              16.1124915187287
            ],
            [
              120.375670132439,
              16.1132110809681
            ],
            [
              120.375615230672,
              16.1139603727262
            ],
            [
              120.377125981359,
              16.1133072399634
            ],
            [
              120.378375279758,
              16.1132152371227
            ],
            [
              120.378366637455,
              16.1120196752909
            ],
            [
              120.378484999193,
              16.1108369997931
            ],
            [
              120.378307999423,
              16.1097979998722
            ],
            [
              120.378175999655,
              16.1087599997927
            ],
            [
              120.377641999699,
              16.1071589991893
            ],
            [
              120.376524999608,
              16.1060309995094
            ],
            [
              120.37496099995,
              16.1045989998776
            ],
            [
              120.37474199977,
              16.1026960000167
            ],
            [
              120.374992999352,
              16.1012639992392
            ],
            [
              120.374661999495,
              16.0985879997064
            ],
            [
              120.373992999749,
              16.0974620000098
            ],
            [
              120.372337999646,
              16.0965489996392
            ],
            [
              120.369611999724,
              16.0941619999147
            ],
            [
              120.367065999454,
              16.0910409996317
            ],
            [
              120.365231999449,
              16.0900849998275
            ],
            [
              120.3644279995,
              16.0893469998123
            ],
            [
              120.361121999548,
              16.0858779997817
            ],
            [
              120.360899999671,
              16.0852289996792
            ],
            [
              120.360856999874,
              16.0843199995311
            ],
            [
              120.360858999857,
              16.083455999564
            ],
            [
              120.360860999279,
              16.0825479993096
            ],
            [
              120.360995999045,
              16.0823319996366
            ],
            [
              120.361176999413,
              16.0816839997094
            ],
            [
              120.36167099907,
              16.0811659994754
            ],
            [
              120.362656999137,
              16.0805639996601
            ],
            [
              120.363555999831,
              16.0793559997322
            ],
            [
              120.363604999637,
              16.0776699994163
            ],
            [
              120.36284799961,
              16.0757649997984
            ],
            [
              120.361552999648,
              16.073944999639
            ],
            [
              120.360213999216,
              16.0722549998985
            ],
            [
              120.35905199962,
              16.0709969991949
            ],
            [
              120.358203999219,
              16.0700429999796
            ],
            [
              120.356637999149,
              16.0692169991836
            ],
            [
              120.353908999835,
              16.0680849998694
            ],
            [
              120.352609999049,
              16.0680809997429
            ],
            [
              120.351043999042,
              16.067470999617
            ],
            [
              120.350418999433,
              16.066603999752
            ],
            [
              120.350511999597,
              16.0653069993974
            ],
            [
              120.351184999136,
              16.0645739994895
            ],
            [
              120.352485999307,
              16.0639289998851
            ],
            [
              120.354142999282,
              16.0635879991874
            ],
            [
              120.356742999633,
              16.0626019995546
            ],
            [
              120.356968999399,
              16.061823999406
            ],
            [
              120.3568809999,
              16.0610889998621
            ],
            [
              120.356748999098,
              16.0601369993835
            ],
            [
              120.356750999096,
              16.0592719995598
            ],
            [
              120.359038999245,
              16.0578089992723
            ],
            [
              120.362307999719,
              16.0576889993724
            ],
            [
              120.362309999102,
              16.0569540000619
            ],
            [
              120.362581999398,
              16.0555279994596
            ],
            [
              120.362896999526,
              16.054966999573
            ],
            [
              120.364289999751,
              16.0531549994779
            ]
          ]
        ]
      }
    }
  ]
}
